NORAD_CAT_ID,OBJECT_NAME,OBJECT_TYPE,EPOCH,MEAN_MOTION,ECCENTRICITY,INCLINATION,RA_OF_ASC_NODE,ARG_OF_PERICENTER,MEAN_ANOMALY,BSTAR,MEAN_MOTION_DOT,MEAN_MOTION_DDOT,TLE_LINE0,TLE_LINE1,TLE_LINE2,SEMIMAJOR_AXIS,PERIOD,APOGEE,PERIGEE,DECAYED
52558.0,STARLINK-3954,PAYLOAD,2024-06-09 03:56:16,15.08833658,0.0001583,53.2176,105.5749,79.5182,280.5988,3.9617e-06,-2.25e-06,0.0,0 STARLINK-3954,1 52558U 22051AB  24161.16408049 -.00000225  00000-0  39617-5 0  9992,2 52558  53.2176 105.5749 0001583  79.5182 280.5988 15.08833658115252,6917.9,95.438,540.86,538.67,0.0
52558.0,STARLINK-3954,PAYLOAD,2024-06-09 19:50:07,15.08838029,0.0001579,53.2177,102.6028,81.3902,278.7269,3.8856e-05,3.3e-06,0.0,0 STARLINK-3954,1 52558U 22051AB  24161.82648121  .00000330  00000-0  38856-4 0  9991,2 52558  53.2177 102.6028 0001579  81.3902 278.7269 15.08838029115288,6917.886,95.438,540.844,538.659,0.0
52558.0,STARLINK-3954,PAYLOAD,2024-06-10 03:47:03,15.08848504,0.0001401,53.2173,101.1173,98.9209,261.1942,0.00010099,1.32e-05,0.0,0 STARLINK-3954,1 52558U 22051AB  24162.15767490  .00001320  00000-0  10099-3 0  9997,2 52558  53.2173 101.1173 0001401  98.9209 261.1942 15.08848504115404,6917.854,95.437,540.689,538.75,0.0
52558.0,STARLINK-3954,PAYLOAD,2024-06-10 13:19:22,15.0884137,0.0001469,53.2185,99.3307,93.9776,266.1384,2.5273e-05,1.14e-06,0.0,0 STARLINK-3954,1 52558U 22051AB  24162.55511938  .00000114  00000-0  25273-4 0  9996,2 52558  53.2185  99.3307 0001469  93.9776 266.1384 15.08841370115467,6917.876,95.437,540.757,538.725,0.0
52558.0,STARLINK-3954,PAYLOAD,2024-06-11 13:10:09,15.08845783,0.0001461,53.2184,94.8713,96.4101,263.7058,0.00024642,3.637e-05,0.0,0 STARLINK-3954,1 52558U 22051AB  24163.54872051  .00003637  00000-0  24642-3 0  9993,2 52558  53.2184  94.8713 0001461  96.4101 263.7058 15.08845783115541,6917.863,95.437,540.738,538.717,0.0
52558.0,STARLINK-3954,PAYLOAD,2024-06-12 05:04:00,15.08857384,0.0001598,53.2184,91.8964,101.5172,258.6,0.00025691,3.805e-05,0.0,0 STARLINK-3954,1 52558U 22051AB  24164.21111235  .00003805  00000-0  25691-3 0  9990,2 52558  53.2184  91.8964 0001598 101.5172 258.6000 15.08857384115712,6917.827,95.436,540.798,538.587,0.0
52558.0,STARLINK-3954,PAYLOAD,2024-06-12 22:33:15,15.08841675,0.0001383,53.2178,88.6281,94.2515,265.8636,8.8394e-05,1.119e-05,0.0,0 STARLINK-3954,1 52558U 22051AB  24164.93975984  .00001119  00000-0  88394-4 0  9994,2 52558  53.2178  88.6281 0001383  94.2515 265.8636 15.08841675115757,6917.875,95.437,540.697,538.784,0.0
52558.0,STARLINK-3954,PAYLOAD,2024-06-13 04:54:47,15.0884142,0.0001467,53.2182,87.4363,86.6956,273.4204,6.222e-05,7.02e-06,0.0,0 STARLINK-3954,1 52558U 22051AB  24165.20472023  .00000702  00000-0  62220-4 0  9998,2 52558  53.2182  87.4363 0001467  86.6956 273.4204 15.08841420115863,6917.876,95.437,540.756,538.726,0.0
52558.0,STARLINK-3954,PAYLOAD,2024-06-13 11:16:20,15.08839922,0.0001364,53.2173,86.247,87.6253,272.4896,1.7777e-05,-5e-08,0.0,0 STARLINK-3954,1 52558U 22051AB  24165.46968052 -.00000005  00000-0  17777-4 0  9992,2 52558  53.2173  86.2470 0001364  87.6253 272.4896 15.08839922115833,6917.881,95.438,540.689,538.802,0.0
52558.0,STARLINK-3954,PAYLOAD,2024-06-13 22:24:02,15.08839844,0.0001399,53.2181,84.1657,90.4003,269.715,4.6627e-05,4.54e-06,0.0,0 STARLINK-3954,1 52558U 22051AB  24165.93336098  .00000454  00000-0  46627-4 0  9996,2 52558  53.2181  84.1657 0001399  90.4003 269.7150 15.08839844115902,6917.881,95.438,540.714,538.778,0.0
52558.0,STARLINK-3954,PAYLOAD,2024-06-14 01:34:48,15.0884489,0.0001354,53.2177,83.5723,85.1318,274.9828,0.00015244,2.139e-05,0.0,0 STARLINK-3954,1 52558U 22051AB  24166.06583933  .00002139  00000-0  15244-3 0  9995,2 52558  53.2177  83.5723 0001354  85.1318 274.9828 15.08844890115924,6917.865,95.437,540.667,538.794,0.0
52558.0,STARLINK-3954,PAYLOAD,2024-06-14 22:14:49,15.08839574,0.0001144,53.2166,79.7077,81.8188,278.2934,9.0692e-05,1.156e-05,0.0,0 STARLINK-3954,1 52558U 22051AB  24166.92696267  .00001156  00000-0  90692-4 0  9994,2 52558  53.2166  79.7077 0001144  81.8188 278.2934 15.08839574116059,6917.882,95.438,540.538,538.955,0.0
52558.0,STARLINK-3954,PAYLOAD,2024-06-15 04:36:21,15.08844296,0.0001144,53.2164,78.5169,75.4367,284.6752,0.00018102,2.595e-05,0.0,0 STARLINK-3954,1 52558U 22051AB  24167.19192093  .00002595  00000-0  18102-3 0  9995,2 52558  53.2164  78.5169 0001144  75.4367 284.6752 15.08844296116094,6917.867,95.437,540.524,538.941,0.0
52558.0,STARLINK-3954,PAYLOAD,2024-06-15 22:05:36,15.08834026,0.0001642,53.2174,75.2443,116.9978,243.1182,-1.2715e-05,-4.9e-06,0.0,0 STARLINK-3954,1 52558U 22051AB  24167.92056602 -.00000490  00000-0 -12715-4 0  9990,2 52558  53.2174  75.2443 0001642 116.9978 243.1182 15.08834026116206,6917.899,95.438,540.9,538.628,0.0
52558.0,STARLINK-3954,PAYLOAD,2024-06-16 10:48:41,15.08852979,0.0001396,53.2176,72.8674,86.3317,273.7835,0.00030513,4.573e-05,0.0,0 STARLINK-3954,1 52558U 22051AB  24168.45048039  .00004573  00000-0  30513-3 0  9993,2 52558  53.2176  72.8674 0001396  86.3317 273.7835 15.08852979116289,6917.841,95.437,540.671,538.74,0.0
52558.0,STARLINK-3954,PAYLOAD,2024-06-16 21:56:22,15.08862515,1.65e-05,53.217,70.784,148.4511,211.6491,0.00039708,6.042e-05,0.0,0 STARLINK-3954,1 52558U 22051AB  24168.91414710  .00006042  00000-0  39708-3 0  9995,2 52558  53.2170  70.7840 0000165 148.4511 211.6491 15.08862515116358,6917.812,95.436,539.791,539.562,0.0
52558.0,STARLINK-3954,PAYLOAD,2024-06-17 21:47:11,15.08827418,0.0001588,53.2182,66.3263,90.9039,269.2135,-0.00020397,-3.532e-05,0.0,0 STARLINK-3954,1 52558U 22051AB  24169.90777187 -.00003532  00000-0 -20397-3 0  9992,2 52558  53.2182  66.3263 0001588  90.9039 269.2135 15.08827418116501,6917.919,95.438,540.882,538.685,0.0
52558.0,STARLINK-3954,PAYLOAD,2024-06-18 10:30:16,15.08840045,0.0001675,53.2189,63.945,91.9533,268.1651,4.7802e-05,4.73e-06,0.0,0 STARLINK-3954,1 52558U 22051AB  24170.43768849  .00000473  00000-0  47802-4 0  9997,2 52558  53.2189  63.9450 0001675  91.9533 268.1651 15.08840045116654,6917.88,95.438,540.904,538.587,0.0
52558.0,STARLINK-3954,PAYLOAD,2024-06-18 23:13:20,15.08854503,0.0001554,53.2196,61.5655,97.05,263.0669,0.00011471,1.539e-05,0.0,0 STARLINK-3954,1 52558U 22051AB  24170.96759971  .00001539  00000-0  11471-3 0  9997,2 52558  53.2196  61.5655 0001554  97.0500 263.0669 15.08854503116668,6917.836,95.437,540.776,538.626,0.0
52558.0,STARLINK-3954,PAYLOAD,2024-06-19 10:21:03,15.08843452,0.0001367,53.2202,59.4866,82.6676,277.4472,0.0003432,5.179e-05,0.0,0 STARLINK-3954,1 52558U 22051AB  24171.43128746  .00005179  00000-0  34320-3 0  9992,2 52558  53.2202  59.4866 0001367  82.6676 277.4472 15.08843452116800,6917.87,95.437,540.681,538.789,0.0
52558.0,STARLINK-3954,PAYLOAD,2024-06-19 21:28:45,15.08829869,0.0001667,53.2182,57.4038,100.5373,259.5807,0.00014848,2.075e-05,0.0,0 STARLINK-3954,1 52558U 22051AB  24171.89497356  .00002075  00000-0  14848-3 0  9993,2 52558  53.2182  57.4038 0001667 100.5373 259.5807 15.08829869116879,6917.911,95.438,540.93,538.623,0.0
52558.0,STARLINK-3954,PAYLOAD,2024-06-20 21:19:32,15.08846328,0.00017,53.2182,52.9441,98.8874,261.231,-1.4067e-06,-3.1e-06,0.0,0 STARLINK-3954,1 52558U 22051AB  24172.88856777 -.00000310  00000-0 -14067-5 0  9996,2 52558  53.2182  52.9441 0001700  98.8874 261.2310 15.08846328116957,6917.861,95.437,540.902,538.55,0.0
52558.0,STARLINK-3954,PAYLOAD,2024-06-20 22:54:55,15.08847293,0.0001796,53.219,52.6472,98.9142,261.2054,-1.7522e-05,-5.67e-06,0.0,0 STARLINK-3954,1 52558U 22051AB  24172.95480790 -.00000567  00000-0 -17522-4 0  9994,2 52558  53.2190  52.6472 0001796  98.9142 261.2054 15.08847293117038,6917.858,95.437,540.966,538.481,0.0
52558.0,STARLINK-3954,PAYLOAD,2024-06-21 02:05:41,15.0885372,0.0001748,53.218,52.0538,92.5372,267.582,-3.8196e-05,-8.96e-06,0.0,0 STARLINK-3954,1 52558U 22051AB  24173.08728410 -.00000896  00000-0 -38196-4 0  9998,2 52558  53.2180  52.0538 0001748  92.5372 267.5820 15.08853720116981,6917.838,95.437,540.913,538.494,0.0
52558.0,STARLINK-3954,PAYLOAD,2024-06-21 21:10:17,15.08897442,0.0001913,53.2176,48.484,75.8501,284.2704,-0.00088183,-0.00014317,0.0,0 STARLINK-3954,1 52558U 22051AB  24173.88215210 -.00014317  00000-0 -88183-3 0  9998,2 52558  53.2176  48.4840 0001913  75.8501 284.2704 15.08897442117171,6917.705,95.434,540.893,538.246,0.0
52558.0,STARLINK-3954,PAYLOAD,2024-06-22 14:39:34,15.08839481,0.0001454,53.2171,45.2118,83.303,276.8127,1.8135e-05,1e-08,0.0,0 STARLINK-3954,1 52558U 22051AB  24174.61081471  .00000001  00000-0  18135-4 0  9994,2 52558  53.2171  45.2118 0001454  83.3030 276.8127 15.08839481117210,6917.882,95.438,540.753,538.741,0.0
52558.0,STARLINK-3954,PAYLOAD,2024-06-22 21:01:06,15.08839542,0.0001423,53.2174,44.0224,83.2351,276.8803,1.3485e-05,-7.3e-07,0.0,0 STARLINK-3954,1 52558U 22051AB  24174.87577462 -.00000073  00000-0  13485-4 0  9995,2 52558  53.2174  44.0224 0001423  83.2351 276.8803 15.08839542117320,6917.882,95.438,540.731,538.762,0.0
52558.0,STARLINK-3954,PAYLOAD,2024-06-23 14:30:21,15.08836872,0.0001385,53.218,40.7522,98.1215,261.9934,6.2469e-05,7.06e-06,0.0,0 STARLINK-3954,1 52558U 22051AB  24175.60441503  .00000706  00000-0  62469-4 0  9991,2 52558  53.2180  40.7522 0001385  98.1215 261.9934 15.08836872117369,6917.89,95.438,540.713,538.797,0.0
52558.0,STARLINK-3954,PAYLOAD,2024-06-23 22:27:16,15.08844557,0.0001304,53.2175,39.2662,78.3493,281.7646,0.00011107,1.48e-05,0.0,0 STARLINK-3954,1 52558U 22051AB  24175.93560964  .00001480  00000-0  11107-3 0  9992,2 52558  53.2175  39.2662 0001304  78.3493 281.7646 15.08844557117415,6917.866,95.437,540.634,538.829,0.0
52558.0,STARLINK-3954,PAYLOAD,2024-06-24 00:02:39,15.08847074,0.0001338,53.2179,38.9685,91.5399,268.5746,0.00013291,1.828e-05,0.0,0 STARLINK-3954,1 52558U 22051AB  24176.00184687  .00001828  00000-0  13291-3 0  9997,2 52558  53.2179  38.9685 0001338  91.5399 268.5746 15.08847074117498,6917.859,95.437,540.649,538.798,0.0
